[{"OBJECT_NAME":"HELIOS 1B","OBJECT_ID":"1999-064A","EPOCH":"2026-03-24T04:10:53.258592","MEAN_MOTION":14.8775237,"ECCENTRICITY":0.00020327,"INCLINATION":98.1679,"RA_OF_ASC_NODE":345.8422,"ARG_OF_PERICENTER":55.2095,"MEAN_ANOMALY":304.9311,"EPHEMERIS_TYPE":0,"CLASSIFICATION_TYPE":"U","NORAD_CAT_ID":25977,"ELEMENT_SET_NO":999,"REV_AT_EPOCH":68741,"BSTAR":0.00019851863,"MEAN_MOTION_DOT":1.752e-5,"MEAN_MOTION_DDOT":0},{"OBJECT_NAME":"TERRA","OBJECT_ID":"1999-068A","EPOCH":"2026-03-24T05:40:05.274624","MEAN_MOTION":14.61029624,"ECCENTRICITY":0.00034404,"INCLINATION":97.9563,"RA_OF_ASC_NODE":136.113,"ARG_OF_PERICENTER":120.7471,"MEAN_ANOMALY":310.2015,"EPHEMERIS_TYPE":0,"CLASSIFICATION_TYPE":"U","NORAD_CAT_ID":25994,"ELEMENT_SET_NO":999,"REV_AT_EPOCH":39720,"BSTAR":0.00010636323,"MEAN_MOTION_DOT":4.78e-6,"MEAN_MOTION_DDOT":0},{"OBJECT_NAME":"SL-16 R/B","OBJECT_ID":"2000-006B","EPOCH":"2026-03-24T05:07:18.020064","MEAN_MOTION":14.15824404,"ECCENTRICITY":0.00160081,"INCLINATION":71.001,"RA_OF_ASC_NODE":67.2956,"ARG_OF_PERICENTER":167.2572,"MEAN_ANOMALY":192.8959,"EPHEMERIS_TYPE":0,"CLASSIFICATION_TYPE":"U","NORAD_CAT_ID":26070,"ELEMENT_SET_NO":999,"REV_AT_EPOCH":35061,"BSTAR":0.00011094382,"MEAN_MOTION_DOT":1.71e-6,"MEAN_MOTION_DDOT":0},{"OBJECT_NAME":"TITAN 4B R/B","OBJECT_ID":"2000-047B","EPOCH":"2026-03-24T06:32:33.897984","MEAN_MOTION":15.09698172,"ECCENTRICITY":0.00396504,"INCLINATION":67.9913,"RA_OF_ASC_NODE":359.501,"ARG_OF_PERICENTER":18.3388,"MEAN_ANOMALY":341.918,"EPHEMERIS_TYPE":0,"CLASSIFICATION_TYPE":"U","NORAD_CAT_ID":26474,"ELEMENT_SET_NO":999,"REV_AT_EPOCH":39511,"BSTAR":0.00026104028,"MEAN_MOTION_DOT":4.159e-5,"MEAN_MOTION_DDOT":0},{"OBJECT_NAME":"ENVISAT","OBJECT_ID":"2002-009A","EPOCH":"2026-03-24T03:13:31.504224","MEAN_MOTION":14.39041696,"ECCENTRICITY":0.00012471,"INCLINATION":98.3752,"RA_OF_ASC_NODE":36.3899,"ARG_OF_PERICENTER":81.4598,"MEAN_ANOMALY":289.8813,"EPHEMERIS_TYPE":0,"CLASSIFICATION_TYPE":"U","NORAD_CAT_ID":27386,"ELEMENT_SET_NO":999,"REV_AT_EPOCH":26125,"BSTAR":5.2067799e-5,"MEAN_MOTION_DOT":1.18e-6,"MEAN_MOTION_DDOT":0},{"OBJECT_NAME":"IDEFIX & ARIANE 42P R/B","OBJECT_ID":"2002-021B","EPOCH":"2026-03-24T02:37:05.050272","MEAN_MOTION":14.31035409,"ECCENTRICITY":0.00123974,"INCLINATION":98.5886,"RA_OF_ASC_NODE":21.5443,"ARG_OF_PERICENTER":140.5039,"MEAN_ANOMALY":219.7049,"EPHEMERIS_TYPE":0,"CLASSIFICATION_TYPE":"U","NORAD_CAT_ID":27422,"ELEMENT_SET_NO":999,"REV_AT_EPOCH":24608,"BSTAR":0.00011945437,"MEAN_MOTION_DOT":2.71e-6,"MEAN_MOTION_DDOT":0},{"OBJECT_NAME":"AQUA","OBJECT_ID":"2002-022A","EPOCH":"2026-03-24T08:14:21.871680","MEAN_MOTION":14.62009266,"ECCENTRICITY":9.513e-5,"INCLINATION":98.4199,"RA_OF_ASC_NODE":50.9779,"ARG_OF_PERICENTER":116.8819,"MEAN_ANOMALY":10.2913,"EPHEMERIS_TYPE":0,"CLASSIFICATION_TYPE":"U","NORAD_CAT_ID":27424,"ELEMENT_SET_NO":999,"REV_AT_EPOCH":27087,"BSTAR":0.00021565869,"MEAN_MOTION_DOT":1.032e-5,"MEAN_MOTION_DDOT":0},{"OBJECT_NAME":"CZ-4B R/B","OBJECT_ID":"2002-024C","EPOCH":"2026-03-24T03:33:16.869024","MEAN_MOTION":14.14550126,"ECCENTRICITY":0.00497375,"INCLINATION":98.8808,"RA_OF_ASC_NODE":136.48,"ARG_OF_PERICENTER":343.1488,"MEAN_ANOMALY":75.539,"EPHEMERIS_TYPE":0,"CLASSIFICATION_TYPE":"U","NORAD_CAT_ID":27432,"ELEMENT_SET_NO":999,"REV_AT_EPOCH":23128,"BSTAR":3.8520047e-5,"MEAN_MOTION_DOT":3.0e-7,"MEAN_MOTION_DDOT":0},{"OBJECT_NAME":"MIDORI II (ADEOS-II)","OBJECT_ID":"2002-056A","EPOCH":"2026-03-24T03:42:39.510144","MEAN_MOTION":14.2929551,"ECCENTRICITY":9.843e-5,"INCLINATION":98.7794,"RA_OF_ASC_NODE":41.7344,"ARG_OF_PERICENTER":26.5566,"MEAN_ANOMALY":333.5666,"EPHEMERIS_TYPE":0,"CLASSIFICATION_TYPE":"U","NORAD_CAT_ID":27597,"ELEMENT_SET_NO":999,"REV_AT_EPOCH":21236,"BSTAR":0.000138682,"MEAN_MOTION_DOT":3.08e-6,"MEAN_MOTION_DDOT":0},{"OBJECT_NAME":"H-2A R/B","OBJECT_ID":"2002-056E","EPOCH":"2026-03-24T03:28:54.772032","MEAN_MOTION":14.33769799,"ECCENTRICITY":0.00712347,"INCLINATION":98.3228,"RA_OF_ASC_NODE":42.9625,"ARG_OF_PERICENTER":118.0199,"MEAN_ANOMALY":261.328,"EPHEMERIS_TYPE":0,"CLASSIFICATION_TYPE":"U","NORAD_CAT_ID":27601,"ELEMENT_SET_NO":999,"REV_AT_EPOCH":21618,"BSTAR":0.00011444686,"MEAN_MOTION_DOT":2.86e-6,"MEAN_MOTION_DDOT":0},{"OBJECT_NAME":"CZ-4B R/B","OBJECT_ID":"2003-049C","EPOCH":"2026-03-23T23:05:39.225120","MEAN_MOTION":14.55032634,"ECCENTRICITY":0.00479782,"INCLINATION":98.6892,"RA_OF_ASC_NODE":78.4285,"ARG_OF_PERICENTER":186.7974,"MEAN_ANOMALY":173.2577,"EPHEMERIS_TYPE":0,"CLASSIFICATION_TYPE":"U","NORAD_CAT_ID":28059,"ELEMENT_SET_NO":999,"REV_AT_EPOCH":18867,"BSTAR":9.5697705e-5,"MEAN_MOTION_DOT":3.67e-6,"MEAN_MOTION_DDOT":0},{"OBJECT_NAME":"CZ-2C R/B","OBJECT_ID":"2004-012C","EPOCH":"2026-03-24T04:24:52.357248","MEAN_MOTION":15.66265434,"ECCENTRICITY":0.00130358,"INCLINATION":97.7188,"RA_OF_ASC_NODE":149.8666,"ARG_OF_PERICENTER":250.376,"MEAN_ANOMALY":109.6092,"EPHEMERIS_TYPE":0,"CLASSIFICATION_TYPE":"U","NORAD_CAT_ID":28222,"ELEMENT_SET_NO":999,"REV_AT_EPOCH":20654,"BSTAR":0.00051122158,"MEAN_MOTION_DOT":0.00053063,"MEAN_MOTION_DDOT":0},{"OBJECT_NAME":"SL-16 R/B","OBJECT_ID":"2004-021B","EPOCH":"2026-03-24T07:21:36.646560","MEAN_MOTION":14.14593452,"ECCENTRICITY":0.00047442,"INCLINATION":71.0003,"RA_OF_ASC_NODE":201.8174,"ARG_OF_PERICENTER":351.9711,"MEAN_ANOMALY":8.1335,"EPHEMERIS_TYPE":0,"CLASSIFICATION_TYPE":"U","NORAD_CAT_ID":28353,"ELEMENT_SET_NO":999,"REV_AT_EPOCH":12490,"BSTAR":3.4031413e-5,"MEAN_MOTION_DOT":1.8e-7,"MEAN_MOTION_DDOT":0},{"OBJECT_NAME":"CZ-4B R/B","OBJECT_ID":"2004-035C","EPOCH":"2026-03-23T23:28:19.353792","MEAN_MOTION":15.29308722,"ECCENTRICITY":0.00300056,"INCLINATION":97.3476,"RA_OF_ASC_NODE":117.0501,"ARG_OF_PERICENTER":278.1815,"MEAN_ANOMALY":81.6023,"EPHEMERIS_TYPE":0,"CLASSIFICATION_TYPE":"U","NORAD_CAT_ID":28415,"ELEMENT_SET_NO":999,"REV_AT_EPOCH":18209,"BSTAR":0.00031053092,"MEAN_MOTION_DOT":8.872e-5,"MEAN_MOTION_DDOT":0},{"OBJECT_NAME":"CZ-2C R/B","OBJECT_ID":"2004-046B","EPOCH":"2026-03-24T05:03:03.138336","MEAN_MOTION":14.26997056,"ECCENTRICITY":0.01405022,"INCLINATION":98.1977,"RA_OF_ASC_NODE":357.2899,"ARG_OF_PERICENTER":111.754,"MEAN_ANOMALY":249.8662,"EPHEMERIS_TYPE":0,"CLASSIFICATION_TYPE":"U","NORAD_CAT_ID":28480,"ELEMENT_SET_NO":999,"REV_AT_EPOCH":11057,"BSTAR":6.953781e-5,"MEAN_MOTION_DOT":1.48e-6,"MEAN_MOTION_DDOT":0},{"OBJECT_NAME":"ARIANE 5 R/B","OBJECT_ID":"2004-049H","EPOCH":"2026-03-24T04:25:04.814400","MEAN_MOTION":14.85290669,"ECCENTRICITY":0.00830408,"INCLINATION":98.2649,"RA_OF_ASC_NODE":252.186,"ARG_OF_PERICENTER":304.5858,"MEAN_ANOMALY":54.7542,"EPHEMERIS_TYPE":0,"CLASSIFICATION_TYPE":"U","NORAD_CAT_ID":28499,"ELEMENT_SET_NO":999,"REV_AT_EPOCH":14794,"BSTAR":9.3856061e-5,"MEAN_MOTION_DOT":7.91e-6,"MEAN_MOTION_DDOT":0},{"OBJECT_NAME":"CZ-2D R/B","OBJECT_ID":"2005-024B","EPOCH":"2026-03-24T00:09:15.792192","MEAN_MOTION":15.61436082,"ECCENTRICITY":0.00031934,"INCLINATION":97.3587,"RA_OF_ASC_NODE":98.6909,"ARG_OF_PERICENTER":3.3069,"MEAN_ANOMALY":356.821,"EPHEMERIS_TYPE":0,"CLASSIFICATION_TYPE":"U","NORAD_CAT_ID":28738,"ELEMENT_SET_NO":999,"REV_AT_EPOCH":14201,"BSTAR":0.00051617075,"MEAN_MOTION_DOT":0.00044103,"MEAN_MOTION_DDOT":0}]
