HELIOS 1B               
1 25977U 99064A   26083.17422753  .00001752  00000+0  19852-3 0  9990
2 25977  98.1679 345.8422 0002032  55.2095 304.9311 14.87752370687414
TERRA                   
1 25994U 99068A   26083.23617216  .00000478  00000+0  10636-3 0  9995
2 25994  97.9563 136.1130 0003440 120.7471 310.2015 14.61029624397206
SL-16 R/B               
1 26070U 00006B   26083.21340301  .00000171  00000+0  11094-3 0  9990
2 26070  71.0010  67.2956 0016008 167.2572 192.8959 14.15824404350617
TITAN 4B R/B            
1 26474U 00047B   26083.27261456  .00004159  00000+0  26104-3 0  9990
2 26474  67.9913 359.5010 0039650  18.3388 341.9180 15.09698172395110
ENVISAT                 
1 27386U 02009A   26083.13439241  .00000118  00000+0  52068-4 0  9997
2 27386  98.3752  36.3899 0001247  81.4598 289.8813 14.39041696261257
IDEFIX & ARIANE 42P R/B 
1 27422U 02021B   26083.10908623  .00000271  00000+0  11945-3 0  9992
2 27422  98.5886  21.5443 0012397 140.5039 219.7049 14.31035409246088
AQUA                    
1 27424U 02022A   26083.34330870  .00001032  00000+0  21566-3 0  9990
2 27424  98.4199  50.9779 0000951 116.8819  10.2913 14.62009266270873
CZ-4B R/B               
1 27432U 02024C   26083.14811191  .00000030  00000+0  38520-4 0  9995
2 27432  98.8808 136.4800 0049737 343.1488  75.5390 14.14550126231288
MIDORI II (ADEOS-II)    
1 27597U 02056A   26083.15462396  .00000308  00000+0  13868-3 0  9997
2 27597  98.7794  41.7344 0000984  26.5566 333.5666 14.29295510212364
H-2A R/B                
1 27601U 02056E   26083.14507838  .00000286  00000+0  11445-3 0  9997
2 27601  98.3228  42.9625 0071234 118.0199 261.3280 14.33769799216182
CZ-4B R/B               
1 28059U 03049C   26082.96225955  .00000367  00000+0  95698-4 0  9997
2 28059  98.6892  78.4285 0047978 186.7974 173.2577 14.55032634188674
CZ-2C R/B               
1 28222U 04012C   26083.18393932  .00053063  00000+0  51122-3 0  9990
2 28222  97.7188 149.8666 0013035 250.3760 109.6092 15.66265434206549
SL-16 R/B               
1 28353U 04021B   26083.30667415  .00000018  00000+0  34031-4 0  9992
2 28353  71.0003 201.8174 0004744 351.9711   8.1335 14.14593452124907
CZ-4B R/B               
1 28415U 04035C   26082.97800178  .00008872  00000+0  31053-3 0  9999
2 28415  97.3476 117.0501 0030005 278.1815  81.6023 15.29308722182092
CZ-2C R/B               
1 28480U 04046B   26083.21045299  .00000148  00000+0  69538-4 0  9994
2 28480  98.1977 357.2899 0140502 111.7540 249.8662 14.26997056110579
ARIANE 5 R/B            
1 28499U 04049H   26083.18408350  .00000791  00000+0  93856-4 0  9998
2 28499  98.2649 252.1860 0083040 304.5858  54.7542 14.85290669147946
CZ-2D R/B               
1 28738U 05024B   26083.00643278  .00044103  00000+0  51617-3 0  9992
2 28738  97.3587  98.6909 0003193   3.3069 356.8210 15.61436082142016
